OBJECT_NAME,OBJECT_ID,EPOCH,MEAN_MOTION,ECCENTRICITY,INCLINATION,RA_OF_ASC_NODE,ARG_OF_PERICENTER,MEAN_ANOMALY,EPHEMERIS_TYPE,CLASSIFICATION_TYPE,NORAD_CAT_ID,ELEMENT_SET_NO,REV_AT_EPOCH,BSTAR,MEAN_MOTION_DOT,MEAN_MOTION_DDOT
STARLINK-37537,2026-126A,2026-07-02T13:08:06.796032,15.75255792,.000049,97.2863,44.2757,117.7676,242.3639,0,U,69420,999,516,.12523E-2,.191444E-2,0
STARLINK-37585,2026-126B,2026-07-02T14:24:20.831040,15.75237877,.0000789,97.2844,44.3585,119.3909,240.7435,0,U,69421,999,517,.98228E-3,.149279E-2,0
STARLINK-37573,2026-126C,2026-07-02T13:12:41.216256,15.75260529,.0001434,97.2844,44.2724,112.0220,248.1198,0,U,69422,999,516,.14289E-2,.219234E-2,0
STARLINK-37820,2026-126D,2026-07-02T16:37:00.071616,15.75306653,.000107,97.2847,44.5400,105.5695,254.5689,0,U,69423,999,519,.17721E-2,.274231E-2,0
STARLINK-37822,2026-126E,2026-07-02T03:17:03.700032,15.75190666,.00015696,97.2831,43.9178,84.2717,275.8727,0,U,69424,999,510,.14273642E-2,.21831E-2,0
STARLINK-37836,2026-126F,2026-07-02T16:00:01.998720,15.75237157,.0001505,97.2833,44.5220,93.8869,136.7651,0,U,69425,999,519,-.64993E-3,-.96186E-3,0
STARLINK-37850,2026-126G,2026-07-02T16:40:02.900928,15.75293137,.0002505,97.2841,44.5376,111.5018,248.6514,0,U,69426,999,524,.12549E-2,.192179E-2,0
STARLINK-37823,2026-126H,2026-07-02T14:06:33.801408,15.75254776,.0002489,97.2841,44.3767,100.6347,259.5199,0,U,69427,999,517,.10701E-2,.163037E-2,0
STARLINK-37834,2026-126J,2026-07-02T08:12:50.603040,15.75257949,.0001526,97.2844,44.0979,84.8606,275.2833,0,U,69428,999,513,.17505E-2,.270187E-2,0
STARLINK-37857,2026-126K,2026-07-02T14:02:29.874336,15.75291679,.0001884,97.2834,44.3798,127.9595,232.1841,0,U,69429,999,517,.17547E-2,.271267E-2,0
STARLINK-37866,2026-126L,2026-07-02T16:00:01.998720,15.75235301,.0001335,97.2837,44.5270,95.1180,147.5360,0,U,69430,999,524,-.60306E-3,-.89321E-3,0
STARLINK-37555,2026-126M,2026-07-02T13:45:13.239360,15.75306890,.0002219,97.2837,44.3964,126.4985,233.6484,0,U,69431,999,522,.19575E-2,.304016E-2,0
STARLINK-37870,2026-126N,2026-07-02T16:43:05.959200,15.75217358,.0001378,97.2822,44.5344,330.6313,29.4874,0,U,69432,999,519,.13946E-2,.213412E-2,0
STARLINK-37872,2026-126P,2026-07-02T16:00:01.998720,15.75286465,.0001971,97.2839,44.5410,88.2420,188.3524,0,U,69433,999,519,-.91078E-3,-.134439E-2,0
STARLINK-37815,2026-126Q,2026-07-02T03:49:34.768416,15.75213213,.00014965,97.2846,43.8868,84.7350,275.4086,0,U,69434,999,510,.11801736E-2,.179838E-2,0
STARLINK-37801,2026-126R,2026-07-02T08:03:41.842080,15.75220846,.0001715,97.2856,44.1066,81.8992,278.2468,0,U,69435,999,518,.12527E-2,.191225E-2,0
STARLINK-37800,2026-126S,2026-07-02T14:12:39.670848,15.75260544,.000187,97.2835,44.3701,96.1912,263.9567,0,U,69436,999,517,.15033E-2,.230966E-2,0
STARLINK-37792,2026-126T,2026-07-02T13:11:51.733248,15.79987436,.0002129,97.2846,44.4283,145.9343,214.2062,0,U,69437,999,522,.95915E-3,.180513E-2,0
STARLINK-37783,2026-126U,2026-07-02T16:00:01.998720,15.75240107,.0001428,97.2837,44.5367,85.4967,179.1498,0,U,69438,999,524,-.70845E-3,-.104743E-2,0
STARLINK-37771,2026-126V,2026-07-02T13:04:33.242880,15.75248300,.0001825,97.2850,44.2800,185.0355,175.0892,0,U,69439,999,516,.13411E-2,.205298E-2,0
STARLINK-37747,2026-126W,2026-07-02T16:54:16.799040,15.75233099,.0001638,97.2831,44.5232,103.6549,256.4899,0,U,69440,999,519,.9953E-3,.151267E-2,0
STARLINK-37629,2026-127A,2026-07-02T11:16:30.509184,15.75347182,.0001524,53.1582,186.4605,101.8082,258.3109,0,U,69443,999,381,.13439E-2,.211601E-2,0
STARLINK-37509,2026-127B,2026-07-02T03:33:39.804768,15.75307578,.00027914,53.1593,188.0106,34.6719,325.4483,0,U,69444,999,376,.13684697E-2,.215212E-2,0
STARLINK-37641,2026-127C,2026-07-02T16:55:49.718784,15.75264357,.0001755,53.1573,185.0785,71.5472,288.5739,0,U,69445,999,385,.13146E-2,.206086E-2,0
STARLINK-37522,2026-127D,2026-07-02T11:09:59.329728,15.75289113,.0001193,53.1597,186.4301,88.4980,271.6177,0,U,69446,999,381,.10268E-2,.160123E-2,0
STARLINK-37640,2026-127E,2026-07-02T12:02:08.298816,15.75284685,.0001622,53.1590,185.9341,67.4589,292.6603,0,U,69447,999,382,.86785E-3,.134801E-2,0
STARLINK-37572,2026-127F,2026-07-02T17:02:50.264736,15.75302675,.0001314,53.1587,185.1100,96.0218,264.0952,0,U,69448,999,385,.11132E-2,.174045E-2,0
STARLINK-37643,2026-127G,2026-07-02T09:32:34.102752,15.75280533,.0001596,53.1595,186.7169,82.4022,277.7180,0,U,69449,999,380,.12298E-2,.192576E-2,0
STARLINK-37601,2026-127H,2026-07-02T12:34:48.966240,15.75285569,.000136,53.1597,186.0833,105.1460,254.9711,0,U,69450,999,382,.10567E-2,.164873E-2,0
STARLINK-37578,2026-127J,2026-07-02T13:46:34.330080,15.75290967,.0001546,53.1560,185.6765,65.4366,294.6815,0,U,69451,999,383,.10046E-2,.156592E-2,0
